CCSDS_OEM_VERS = 1.0
CREATION_DATE  = 2017-05-11T10:57:52
ORIGINATOR     = GMAT USER

META_START
OBJECT_NAME          = MOPSSat_alt_35785_km_RAAN_0_033
OBJECT_ID            = SatId
CENTER_NAME          = Earth
REF_FRAME            = EME2000
TIME_SYSTEM          = UTC
START_TIME           = 2017-01-01T00:00:00.000
USEABLE_START_TIME   = 2017-01-01T00:00:00.000
USEABLE_STOP_TIME    = 2017-01-02T00:00:00.000
STOP_TIME            = 2017-01-02T00:00:00.000
INTERPOLATION        = Lagrange
INTERPOLATION_DEGREE = 7 
META_STOP


                                                                                   

2017-01-01T03:30:50.000   2.546033120869907e+04   3.360784279541161e+04   5.798375004321201e+00  -2.450943121911572e+00   1.856561805930309e+00   3.230506321284026e-04
2017-01-01T03:31:00.000   2.543581500907206e+04   3.362639947544864e+04   5.801604054963090e+00  -2.452296536828117e+00   1.854773999587780e+00   3.227594656049017e-04
2017-01-01T03:31:10.000   2.541128528158041e+04   3.364493827266497e+04   5.804830193246499e+00  -2.453648647760760e+00   1.852985206677071e+00   3.224681543167183e-04
2017-01-01T03:31:20.000   2.538674203952984e+04   3.366345917700297e+04   5.808053417690243e+00  -2.454999453975820e+00   1.851195428168269e+00   3.221766984075104e-04
2017-01-01T03:31:30.000   2.536218529616396e+04   3.368196217846630e+04   5.811273726823561e+00  -2.456348954744085e+00   1.849404665026932e+00   3.218850980201787e-04
2017-01-01T03:31:40.000   2.533761506479224e+04   3.370044726702412e+04   5.814491119169428e+00  -2.457697149333823e+00   1.847612918223423e+00   3.215933532983912e-04
2017-01-01T03:31:50.000   2.531303135822630e+04   3.371891443303521e+04   5.817705593318392e+00  -2.459044037041723e+00   1.845820188691802e+00   3.213014643798734e-04
2017-01-01T03:32:00.000   2.528843418934498e+04   3.373736366682270e+04   5.820917147854533e+00  -2.460389617161872e+00   1.844026477371024e+00   3.210094314031341e-04
2017-01-01T03:32:10.000   2.526382357094850e+04   3.375579495878390e+04   5.824125781374598e+00  -2.461733888993763e+00   1.842231785194317e+00   3.207172545057292e-04
2017-01-01T03:32:20.000   2.523919951615000e+04   3.377420829909408e+04   5.827331492436454e+00  -2.463076851820701e+00   1.840436113117730e+00   3.204249338289218e-04
2017-01-01T03:32:30.000   2.521456203805270e+04   3.379260367795136e+04   5.830534279601675e+00  -2.464418504927648e+00   1.838639462096584e+00   3.201324695138393e-04
2017-01-01T03:32:40.000   2.518991114982189e+04   3.381098108552185e+04   5.833734141426029e+00  -2.465758847597241e+00   1.836841833090727e+00   3.198398617023288e-04
2017-01-01T03:32:50.000   2.516524686466623e+04   3.382934051195589e+04   5.836931076462258e+00  -2.467097879110956e+00   1.835043227063172e+00   3.195471105367359e-04
2017-01-01T03:33:00.000   2.514056919581236e+04   3.384768194740506e+04   5.840125083263083e+00  -2.468435598750368e+00   1.833243644978246e+00   3.192542161596017e-04
2017-01-01T03:33:10.000   2.511587815649615e+04   3.386600538202910e+04   5.843316160382382e+00  -2.469772005797639e+00   1.831443087800942e+00   3.189611787135594e-04
2017-01-01T03:33:20.000   2.509117375987474e+04   3.388431080606195e+04   5.846504306386701e+00  -2.471107099540348e+00   1.829641556490520e+00   3.186679983402815e-04
2017-01-01T03:33:30.000   2.506645601908498e+04   3.390259820976735e+04   5.849689519847519e+00  -2.472440879268244e+00   1.827839052004754e+00   3.183746751811839e-04
2017-01-01T03:33:40.000   2.504172494724342e+04   3.392086758343905e+04   5.852871799341290e+00  -2.473773344273264e+00   1.826035575299944e+00   3.180812093774218e-04
2017-01-01T03:33:50.000   2.501698055738690e+04   3.393911891744359e+04   5.856051143456891e+00  -2.475104493852655e+00   1.824231127326570e+00   3.177876010692039e-04
2017-01-01T03:34:00.000   2.499222286256133e+04   3.395735220215553e+04   5.859227550784358e+00  -2.476434327304247e+00   1.822425709035782e+00   3.174938503968257e-04
2017-01-01T03:34:10.000   2.496745187583073e+04   3.397556742795107e+04   5.862401019913747e+00  -2.477762843925989e+00   1.820619321380047e+00   3.171999575007849e-04
2017-01-01T03:34:20.000   2.494266761030108e+04   3.399376458518872e+04   5.865571549431777e+00  -2.479090043014539e+00   1.818811965314889e+00   3.169059225220435e-04
2017-01-01T03:34:30.000   2.491787007914110e+04   3.401194366419611e+04   5.868739137919552e+00  -2.480415923864307e+00   1.817003641800412e+00   3.166117456022949e-04
2017-01-01T03:34:40.000   2.489305929550889e+04   3.403010465532298e+04   5.871903783961759e+00  -2.481740485771307e+00   1.815194351795946e+00   3.163174268830859e-04
2017-01-01T03:34:50.000   2.486823527288019e+04   3.404824754870360e+04   5.875065486105266e+00  -2.483063728015841e+00   1.813384096283981e+00   3.160229665097296e-04
2017-01-01T03:35:00.000   2.484339802465087e+04   3.406637233454499e+04   5.878224242909374e+00  -2.484385649883520e+00   1.811572876241189e+00   3.157283646265720e-04
2017-01-01T03:35:10.000   2.481854756428469e+04   3.408447900301965e+04   5.881380052927097e+00  -2.485706250657431e+00   1.809760692649182e+00   3.154336213787498e-04
2017-01-01T03:35:20.000   2.479368390474165e+04   3.410256754468211e+04   5.884532914777785e+00  -2.487025529648526e+00   1.807947546452850e+00   3.151387369053923e-04
2017-01-01T03:35:30.000   2.476880705904800e+04   3.412063795005324e+04   5.887682827074661e+00  -2.488343486165303e+00   1.806133438601905e+00   3.148437113464011e-04
2017-01-01T03:35:40.000   2.474391704016735e+04   3.413869020971478e+04   5.890829788441294e+00  -2.489660119520697e+00   1.804318370041495e+00   3.145485448409137e-04
2017-01-01T03:35:50.000   2.471901386132115e+04   3.415672431407306e+04   5.893973797470428e+00  -2.490975429014845e+00   1.802502341735569e+00   3.142532375311280e-04
2017-01-01T03:36:00.000   2.469409753575125e+04   3.417474025353502e+04   5.897114852754677e+00  -2.492289413947941e+00   1.800685354649567e+00   3.139577895594621e-04
2017-01-01T03:36:10.000   2.466916807671916e+04   3.419273801850745e+04   5.900252952886349e+00  -2.493602073620151e+00   1.798867409750360e+00   3.136622010685553e-04
2017-01-01T03:36:20.000   2.464422549774749e+04   3.421071759922607e+04   5.903388096427665e+00  -2.494913407319178e+00   1.797048508023859e+00   3.133664722041073e-04
2017-01-01T03:36:30.000   2.461926981229541e+04   3.422867898598667e+04   5.906520281951036e+00  -2.496223414337093e+00   1.795228650451353e+00   3.130706031110529e-04
2017-01-01T03:36:40.000   2.459430103388630e+04   3.424662216905351e+04   5.909649508023152e+00  -2.497532093963679e+00   1.793407838018811e+00   3.127745939350679e-04
2017-01-01T03:36:50.000   2.456931917554433e+04   3.426454713906472e+04   5.912775773275600e+00  -2.498839445515975e+00   1.791586071675797e+00   3.124784448159097e-04
2017-01-01T03:37:00.000   2.454432425035772e+04   3.428245388662680e+04   5.915899076334219e+00  -2.500145468308720e+00   1.789763352376549e+00   3.121821558940753e-04
2017-01-01T03:37:10.000   2.451931627135161e+04   3.430034240240676e+04   5.919019415835129e+00  -2.501450161661064e+00   1.787939681070703e+00   3.118857273093003e-04
2017-01-01T03:37:20.000   2.449429525181016e+04   3.431821267689787e+04   5.922136790383902e+00  -2.502753524879483e+00   1.786115058726785e+00   3.115891592043595e-04
2017-01-01T03:37:30.000   2.446926120503792e+04   3.433606470059421e+04   5.925251198585992e+00  -2.504055557270516e+00   1.784289486314808e+00   3.112924517222556e-04
2017-01-01T03:37:40.000   2.444421414435909e+04   3.435389846398974e+04   5.928362639046570e+00  -2.505356258140687e+00   1.782462964806218e+00   3.109956050062053e-04
2017-01-01T03:37:50.000   2.441915408336010e+04   3.437171395740920e+04   5.931471110341002e+00  -2.506655626784180e+00   1.780635495191585e+00   3.106986192025305e-04
2017-01-01T03:38:00.000   2.439408103556357e+04   3.438951117123680e+04   5.934576611054769e+00  -2.507953662499518e+00   1.778807078456824e+00   3.104014944567772e-04
2017-01-01T03:38:10.000   2.436899501455891e+04   3.440729009582414e+04   5.937679139767396e+00  -2.509250364582845e+00   1.776977715592722e+00   3.101042309152701e-04
2017-01-01T03:38:20.000   2.434389603342687e+04   3.442505072189819e+04   5.940778695123648e+00  -2.510545732357671e+00   1.775147407552974e+00   3.098068287182755e-04
2017-01-01T03:38:30.000   2.431878410531628e+04   3.444279304015206e+04   5.943875275762119e+00  -2.511839765145055e+00   1.773316155296240e+00   3.095092880068528e-04
2017-01-01T03:38:40.000   2.429365924329540e+04   3.446051704135091e+04   5.946968880333710e+00  -2.513132462271294e+00   1.771483959775302e+00   3.092116089210884e-04
2017-01-01T03:38:50.000   2.426852146075154e+04   3.447822271604680e+04   5.950059507451881e+00  -2.514423823047150e+00   1.769650821966211e+00   3.089137916048416e-04
2017-01-01T03:39:00.000   2.424337077106145e+04   3.449591005481431e+04   5.953147155733760e+00  -2.515713846785026e+00   1.767816742844247e+00   3.086158362018297e-04
2017-01-01T03:39:10.000   2.421820718766726e+04   3.451357904819617e+04   5.956231823790642e+00  -2.517002532795001e+00   1.765981723389461e+00   3.083177428565288e-04
2017-01-01T03:39:20.000   2.419303072404786e+04   3.453122968672539e+04   5.959313510231862e+00  -2.518289880386444e+00   1.764145764584581e+00   3.080195117138344e-04
2017-01-01T03:39:30.000   2.416784139370395e+04   3.454886196093413e+04   5.962392213666324e+00  -2.519575888868661e+00   1.762308867413927e+00   3.077211429188836e-04
2017-01-01T03:39:40.000   2.414263921012797e+04   3.456647586137478e+04   5.965467932706216e+00  -2.520860557552435e+00   1.760471032861218e+00   3.074226366167006e-04
2017-01-01T03:39:50.000   2.411742418679075e+04   3.458407137863091e+04   5.968540665968878e+00  -2.522143885750820e+00   1.758632261908597e+00   3.071239929520256e-04
